{
  "type": "FeatureCollection",
  "features": [
    {
      "type": "Feature",
      "properties": {
        "norad_id": 66864,
        "name": "STARLINK-36070",
        "group": "last-30-days",
        "lat": 12.33372833118625,
        "lon": -113.41409528644394,
        "alt_km": 342.85004137143096,
        "timestamp": "2025-12-19T14:48:34.965549+00:00",
        "meta_object_name": "STARLINK-36070",
        "meta_object_id": "2025-281S",
        "meta_epoch": "2025-12-19T06:00:02.000160",
        "meta_mean_motion": 15.7512488,
        "meta_eccentricity": 0.00014494,
        "meta_inclination": 43.0008,
        "meta_ra_of_asc_node": 82.3838,
        "meta_arg_of_pericenter": 263.2983,
        "meta_mean_anomaly": 334.5721,
        "meta_ephemeris_type": 0,
        "meta_classification_type": "U",
        "meta_norad_cat_id": 66864,
        "meta_element_set_no": 999,
        "meta_rev_at_epoch": 247,
        "meta_bstar": -0.00093427552,
        "meta_mean_motion_dot": -0.00142131,
        "meta_mean_motion_ddot": 0,
        "tle_line1": "1 66864U 25281S   25353.25002315 -.00142131  00000+0 -93428-3 0  9996",
        "tle_line2": "2 66864  43.0008  82.3838 0001449 263.2983 334.5721 15.75124880  2479"
      },
      "geometry": {
        "type": "Point",
        "coordinates": [
          -113.41409528644394,
          12.33372833118625
        ]
      }
    },
    {
      "type": "Feature",
      "properties": {
        "norad_id": 66865,
        "name": "STARLINK-36117",
        "group": "last-30-days",
        "lat": 9.792479344509102,
        "lon": -110.52613710450132,
        "alt_km": 343.2391087713477,
        "timestamp": "2025-12-19T14:48:34.965559+00:00",
        "meta_object_name": "STARLINK-36117",
        "meta_object_id": "2025-281T",
        "meta_epoch": "2025-12-19T06:00:02.000160",
        "meta_mean_motion": 15.7506425,
        "meta_eccentricity": 0.00015316,
        "meta_inclination": 43.0007,
        "meta_ra_of_asc_node": 82.375,
        "meta_arg_of_pericenter": 270.8061,
        "meta_mean_anomaly": 330.9018,
        "meta_ephemeris_type": 0,
        "meta_classification_type": "U",
        "meta_norad_cat_id": 66865,
        "meta_element_set_no": 999,
        "meta_rev_at_epoch": 244,
        "meta_bstar": -0.00021001854,
        "meta_mean_motion_dot": -0.00032649,
        "meta_mean_motion_ddot": 0,
        "tle_line1": "1 66865U 25281T   25353.25002315 -.00032649  00000+0 -21002-3 0  9998",
        "tle_line2": "2 66865  43.0007  82.3750 0001531 270.8061 330.9018 15.75064250  2445"
      },
      "geometry": {
        "type": "Point",
        "coordinates": [
          -110.52613710450132,
          9.792479344509102
        ]
      }
    },
    {
      "type": "Feature",
      "properties": {
        "norad_id": 66866,
        "name": "STARLINK-36126",
        "group": "last-30-days",
        "lat": 8.506951198401321,
        "lon": -109.0940564650742,
        "alt_km": 343.2665854306406,
        "timestamp": "2025-12-19T14:48:34.965569+00:00",
        "meta_object_name": "STARLINK-36126",
        "meta_object_id": "2025-281U",
        "meta_epoch": "2025-12-19T06:00:02.000160",
        "meta_mean_motion": 15.75051867,
        "meta_eccentricity": 0.00016383,
        "meta_inclination": 43.0007,
        "meta_ra_of_asc_node": 82.37,
        "meta_arg_of_pericenter": 263.0086,
        "meta_mean_anomaly": 340.6231,
        "meta_ephemeris_type": 0,
        "meta_classification_type": "U",
        "meta_norad_cat_id": 66866,
        "meta_element_set_no": 999,
        "meta_rev_at_epoch": 247,
        "meta_bstar": -0.00010126229,
        "meta_mean_motion_dot": -0.00016012,
        "meta_mean_motion_ddot": 0,
        "tle_line1": "1 66866U 25281U   25353.25002315 -.00016012  00000+0 -10126-3 0  9990",
        "tle_line2": "2 66866  43.0007  82.3700 0001638 263.0086 340.6231 15.75051867  2478"
      },
      "geometry": {
        "type": "Point",
        "coordinates": [
          -109.0940564650742,
          8.506951198401321
        ]
      }
    },
    {
      "type": "Feature",
      "properties": {
        "norad_id": 66867,
        "name": "STARLINK-36101",
        "group": "last-30-days",
        "lat": 7.208410014308049,
        "lon": -107.66309829371605,
        "alt_km": 343.48898754720267,
        "timestamp": "2025-12-19T14:48:34.965579+00:00",
        "meta_object_name": "STARLINK-36101",
        "meta_object_id": "2025-281V",
        "meta_epoch": "2025-12-19T06:00:02.000160",
        "meta_mean_motion": 15.75078597,
        "meta_eccentricity": 0.00014812,
        "meta_inclination": 43.0007,
        "meta_ra_of_asc_node": 82.365,
        "meta_arg_of_pericenter": 265.7412,
        "meta_mean_anomaly": 339.8037,
        "meta_ephemeris_type": 0,
        "meta_classification_type": "U",
        "meta_norad_cat_id": 66867,
        "meta_element_set_no": 999,
        "meta_rev_at_epoch": 228,
        "meta_bstar": -0.00043743337,
        "meta_mean_motion_dot": -0.00067253,
        "meta_mean_motion_ddot": 0,
        "tle_line1": "1 66867U 25281V   25353.25002315 -.00067253  00000+0 -43743-3 0  9995",
        "tle_line2": "2 66867  43.0007  82.3650 0001481 265.7412 339.8037 15.75078597  2283"
      },
      "geometry": {
        "type": "Point",
        "coordinates": [
          -107.66309829371605,
          7.208410014308049
        ]
      }
    },
    {
      "type": "Feature",
      "properties": {
        "norad_id": 66868,
        "name": "STARLINK-36108",
        "group": "last-30-days",
        "lat": 5.917416454566949,
        "lon": -106.25341963830572,
        "alt_km": 343.5836424926865,
        "timestamp": "2025-12-19T14:48:34.965589+00:00",
        "meta_object_name": "STARLINK-36108",
        "meta_object_id": "2025-281W",
        "meta_epoch": "2025-12-19T06:00:02.000160",
        "meta_mean_motion": 15.75063571,
        "meta_eccentricity": 0.00015469,
        "meta_inclination": 43.0007,
        "meta_ra_of_asc_node": 82.36,
        "meta_arg_of_pericenter": 263.1383,
        "meta_mean_anomaly": 344.3221,
        "meta_ephemeris_type": 0,
        "meta_classification_type": "U",
        "meta_norad_cat_id": 66868,
        "meta_element_set_no": 999,
        "meta_rev_at_epoch": 228,
        "meta_bstar": -0.000264751,
        "meta_mean_motion_dot": -0.00040992,
        "meta_mean_motion_ddot": 0,
        "tle_line1": "1 66868U 25281W   25353.25002315 -.00040992  00000+0 -26475-3 0  9990",
        "tle_line2": "2 66868  43.0007  82.3600 0001546 263.1383 344.3221 15.75063571  2282"
      },
      "geometry": {
        "type": "Point",
        "coordinates": [
          -106.25341963830572,
          5.917416454566949
        ]
      }
    },
    {
      "type": "Feature",
      "properties": {
        "norad_id": 66869,
        "name": "STARLINK-36092",
        "group": "last-30-days",
        "lat": 4.616860856025451,
        "lon": -104.84393147249904,
        "alt_km": 343.61530715863864,
        "timestamp": "2025-12-19T14:48:34.965601+00:00",
        "meta_object_name": "STARLINK-36092",
        "meta_object_id": "2025-281X",
        "meta_epoch": "2025-12-19T06:00:02.000160",
        "meta_mean_motion": 15.75047343,
        "meta_eccentricity": 0.00015104,
        "meta_inclination": 43.0007,
        "meta_ra_of_asc_node": 82.3549,
        "meta_arg_of_pericenter": 256.7764,
        "meta_mean_anomaly": 352.6107,
        "meta_ephemeris_type": 0,
        "meta_classification_type": "U",
        "meta_norad_cat_id": 66869,
        "meta_element_set_no": 999,
        "meta_rev_at_epoch": 247,
        "meta_bstar": -0.00011850243,
        "meta_mean_motion_dot": -0.00018647,
        "meta_mean_motion_ddot": 0,
        "tle_line1": "1 66869U 25281X   25353.25002315 -.00018647  00000+0 -11850-3 0  9994",
        "tle_line2": "2 66869  43.0007  82.3549 0001510 256.7764 352.6107 15.75047343  2472"
      },
      "geometry": {
        "type": "Point",
        "coordinates": [
          -104.84393147249904,
          4.616860856025451
        ]
      }
    },
    {
      "type": "Feature",
      "properties": {
        "norad_id": 66870,
        "name": "STARLINK-36114",
        "group": "last-30-days",
        "lat": 3.315511872951406,
        "lon": -103.44171271354547,
        "alt_km": 343.8864971000585,
        "timestamp": "2025-12-19T14:48:34.965612+00:00",
        "meta_object_name": "STARLINK-36114",
        "meta_object_id": "2025-281Y",
        "meta_epoch": "2025-12-19T06:00:02.000160",
        "meta_mean_motion": 15.75035081,
        "meta_eccentricity": 0.00015232,
        "meta_inclination": 43.0013,
        "meta_ra_of_asc_node": 82.3498,
        "meta_arg_of_pericenter": 266.0768,
        "meta_mean_anomaly": 345.2235,
        "meta_ephemeris_type": 0,
        "meta_classification_type": "U",
        "meta_norad_cat_id": 66870,
        "meta_element_set_no": 999,
        "meta_rev_at_epoch": 234,
        "meta_bstar": 0.00010923217,
        "meta_mean_motion_dot": 0.00016331,
        "meta_mean_motion_ddot": 0,
        "tle_line1": "1 66870U 25281Y   25353.25002315  .00016331  00000+0  10923-3 0  9992",
        "tle_line2": "2 66870  43.0013  82.3498 0001523 266.0768 345.2235 15.75035081  2348"
      },
      "geometry": {
        "type": "Point",
        "coordinates": [
          -103.44171271354547,
          3.315511872951406
        ]
      }
    }
  ]
}